{"type": "FeatureCollection", "features": [ {"type": "Feature", "properties": {"norad_id": 33153, "name": "INTELSAT 25 (IS-25)", "group": "intelsat", "lat": -0.9514188695212046, "lon": -72.47348667060885, "alt_km": 35765.29191978619, "timestamp": "2025-12-11T15:53:39.209923+00:00", "meta": {"OBJECT_NAME": "INTELSAT 25 (IS-25)", "OBJECT_ID": "2008-034A", "EPOCH": "2025-12-11T03:09:09.156672", "MEAN_MOTION": 1.00270103, "ECCENTRICITY": 0.00053344, "INCLINATION": 2.2239, "RA_OF_ASC_NODE": 82.6668, "ARG_OF_PERICENTER": 186.6267, "MEAN_ANOMALY": 186.5862, "EPHEMERIS_TYPE": 0, "CLASSIFICATION_TYPE": "U", "NORAD_CAT_ID": 33153, "ELEMENT_SET_NO": 999, "REV_AT_EPOCH": 6381, "BSTAR": 0, "MEAN_MOTION_DOT": -2.18e-06, "MEAN_MOTION_DDOT": 0}, "tle": {"line1": "1 33153U 08034A   25345.13135598 -.00000218  00000+0  00000+0 0  9994", "line2": "2 33153   2.2239  82.6668 0005334 186.6267 186.5862  1.00270103 63810"}}, "geometry": {"type": "Point", "coordinates": [-72.47348667060885, -0.9514188695212046]}}, {"type": "Feature", "properties": {"norad_id": 33376, "name": "GALAXY 19 (G-19)", "group": "intelsat", "lat": -0.030304241593771174, "lon": -137.99169592586568, "alt_km": 35777.74032214733, "timestamp": "2025-12-11T15:53:39.209934+00:00", "meta": {"OBJECT_NAME": "GALAXY 19 (G-19)", "OBJECT_ID": "2008-045A", "EPOCH": "2025-12-11T05:00:38.584224", "MEAN_MOTION": 1.00269711, "ECCENTRICITY": 0.00026978, "INCLINATION": 0.0167, "RA_OF_ASC_NODE": 344.1002, "ARG_OF_PERICENTER": 276.3628, "MEAN_ANOMALY": 157.8728, "EPHEMERIS_TYPE": 0, "CLASSIFICATION_TYPE": "U", "NORAD_CAT_ID": 33376, "ELEMENT_SET_NO": 999, "REV_AT_EPOCH": 6301, "BSTAR": 0, "MEAN_MOTION_DOT": 0, "MEAN_MOTION_DDOT": 0}, "tle": {"line1": "1 33376U 08045A   25345.20877991  .00000000  00000+0  00000+0 0  9999", "line2": "2 33376   0.0167 344.1002 0002697 276.3628 157.8728  1.00269711 63015"}}, "geometry": {"type": "Point", "coordinates": [-137.99169592586568, -0.030304241593771174]}}, {"type": "Feature", "properties": {"norad_id": 35493, "name": "FM-5", "group": "intelsat", "lat": -0.027139834033328303, "lon": -127.11203555537661, "alt_km": 35785.46571992281, "timestamp": "2025-12-11T15:53:39.209946+00:00", "meta": {"OBJECT_NAME": "FM-5", "OBJECT_ID": "2009-034A", "EPOCH": "2025-12-11T04:52:38.653824", "MEAN_MOTION": 1.00270578, "ECCENTRICITY": 5.466e-05, "INCLINATION": 0.0153, "RA_OF_ASC_NODE": 293.7134, "ARG_OF_PERICENTER": 234.7346, "MEAN_ANOMALY": 258.736, "EPHEMERIS_TYPE": 0, "CLASSIFICATION_TYPE": "U", "NORAD_CAT_ID": 35493, "ELEMENT_SET_NO": 999, "REV_AT_EPOCH": 4475, "BSTAR": 0, "MEAN_MOTION_DOT": -1.94e-06, "MEAN_MOTION_DDOT": 0}, "tle": {"line1": "1 35493U 09034A   25345.20322516 -.00000194  00000+0  00000+0 0  9993", "line2": "2 35493   0.0153 293.7134 0000546 234.7346 258.7360  1.00270578 44759"}}, "geometry": {"type": "Point", "coordinates": [-127.11203555537661, -0.027139834033328303]}}, {"type": "Feature", "properties": {"norad_id": 36097, "name": "INTELSAT 14 (IS-14)", "group": "intelsat", "lat": -0.02480627108028852, "lon": -85.97338424884909, "alt_km": 35775.65117873402, "timestamp": "2025-12-11T15:53:39.209958+00:00", "meta": {"OBJECT_NAME": "INTELSAT 14 (IS-14)", "OBJECT_ID": "2009-064A", "EPOCH": "2025-12-11T00:50:38.714784", "MEAN_MOTION": 1.00270021, "ECCENTRICITY": 0.00026105, "INCLINATION": 0.0102, "RA_OF_ASC_NODE": 18.0466, "ARG_OF_PERICENTER": 250.6315, "MEAN_ANOMALY": 138.984, "EPHEMERIS_TYPE": 0, "CLASSIFICATION_TYPE": "U", "NORAD_CAT_ID": 36097, "ELEMENT_SET_NO": 999, "REV_AT_EPOCH": 5871, "BSTAR": 0, "MEAN_MOTION_DOT": -2.68e-06, "MEAN_MOTION_DDOT": 0}, "tle": {"line1": "1 36097U 09064A   25345.03517031 -.00000268  00000+0  00000+0 0  9998", "line2": "2 36097   0.0102  18.0466 0002610 250.6315 138.9840  1.00270021 58713"}}, "geometry": {"type": "Point", "coordinates": [-85.97338424884909, -0.02480627108028852]}}, {"type": "Feature", "properties": {"norad_id": 36106, "name": "INTELSAT 15 (IS-15)", "group": "intelsat", "lat": 0.03470510004642577, "lon": 44.19144840279195, "alt_km": 35793.55716916869, "timestamp": "2025-12-11T15:53:39.209969+00:00", "meta": {"OBJECT_NAME": "INTELSAT 15 (IS-15)", "OBJECT_ID": "2009-067A", "EPOCH": "2025-12-11T01:39:38.885184", "MEAN_MOTION": 1.00270749, "ECCENTRICITY": 0.00023872, "INCLINATION": 0.024, "RA_OF_ASC_NODE": 289.4565, "ARG_OF_PERICENTER": 339.7099, "MEAN_ANOMALY": 280.9264, "EPHEMERIS_TYPE": 0, "CLASSIFICATION_TYPE": "U", "NORAD_CAT_ID": 36106, "ELEMENT_SET_NO": 999, "REV_AT_EPOCH": 3934, "BSTAR": 0, "MEAN_MOTION_DOT": -1.79e-06, "MEAN_MOTION_DDOT": 0}, "tle": {"line1": "1 36106U 09067A   25345.06920006 -.00000179  00000+0  00000+0 0  9996", "line2": "2 36106   0.0240 289.4565 0002387 339.7099 280.9264  1.00270749 39343"}}, "geometry": {"type": "Point", "coordinates": [44.19144840279195, 0.03470510004642577]}}, {"type": "Feature", "properties": {"norad_id": 36131, "name": "DIRECTV 12", "group": "intelsat", "lat": 0.021944460635475116, "lon": -143.69589642413567, "alt_km": 35787.485207705584, "timestamp": "2025-12-11T15:53:39.209981+00:00", "meta": {"OBJECT_NAME": "DIRECTV 12", "OBJECT_ID": "2009-075A", "EPOCH": "2025-12-10T23:19:34.847904", "MEAN_MOTION": 1.0027091, "ECCENTRICITY": 4.062e-05, "INCLINATION": 0.04, "RA_OF_ASC_NODE": 149.0502, "ARG_OF_PERICENTER": 199.7409, "MEAN_ANOMALY": 338.3242, "EPHEMERIS_TYPE": 0, "CLASSIFICATION_TYPE": "U", "NORAD_CAT_ID": 36131, "ELEMENT_SET_NO": 999, "REV_AT_EPOCH": 4466, "BSTAR": 0, "MEAN_MOTION_DOT": -9.8e-07, "MEAN_MOTION_DDOT": 0}, "tle": {"line1": "1 36131U 09075A   25344.97193111 -.00000098  00000+0  00000+0 0  9991", "line2": "2 36131   0.0400 149.0502 0000406 199.7409 338.3242  1.00270910 44665"}}, "geometry": {"type": "Point", "coordinates": [-143.69589642413567, 0.021944460635475116]}}, {"type": "Feature", "properties": {"norad_id": 36397, "name": "INTELSAT 16 (IS-16)", "group": "intelsat", "lat": -0.027645825650854553, "lon": -117.17658813721573, "alt_km": 35777.33031338449, "timestamp": "2025-12-11T15:53:39.209993+00:00", "meta": {"OBJECT_NAME": "INTELSAT 16 (IS-16)", "OBJECT_ID": "2010-006A", "EPOCH": "2025-12-11T04:35:21.046848", "MEAN_MOTION": 1.00272345, "ECCENTRICITY": 0.0002155, "INCLINATION": 0.0107, "RA_OF_ASC_NODE": 320.4435, "ARG_OF_PERICENTER": 301.0646, "MEAN_ANOMALY": 171.2868, "EPHEMERIS_TYPE": 0, "CLASSIFICATION_TYPE": "U", "NORAD_CAT_ID": 36397, "ELEMENT_SET_NO": 999, "REV_AT_EPOCH": 5776, "BSTAR": 0, "MEAN_MOTION_DOT": -2.39e-06, "MEAN_MOTION_DDOT": 0}, "tle": {"line1": "1 36397U 10006A   25345.19121582 -.00000239  00000+0  00000+0 0  9996", "line2": "2 36397   0.0107 320.4435 0002155 301.0646 171.2868  1.00272345 57764"}}, "geometry": {"type": "Point", "coordinates": [-117.17658813721573, -0.027645825650854553]}}, {"type": "Feature", "properties": {"norad_id": 37185, "name": "XM-5", "group": "intelsat", "lat": -0.06538196867873668, "lon": -156.16618787021457, "alt_km": 35783.08962787445, "timestamp": "2025-12-11T15:53:39.210004+00:00", "meta": {"OBJECT_NAME": "XM-5", "OBJECT_ID": "2010-053A", "EPOCH": "2025-12-10T23:47:38.631840", "MEAN_MOTION": 1.00269536, "ECCENTRICITY": 0.00014999, "INCLINATION": 0.0597, "RA_OF_ASC_NODE": 272.8413, "ARG_OF_PERICENTER": 236.063, "MEAN_ANOMALY": 172.7615, "EPHEMERIS_TYPE": 0, "CLASSIFICATION_TYPE": "U", "NORAD_CAT_ID": 37185, "ELEMENT_SET_NO": 999, "REV_AT_EPOCH": 5559, "BSTAR": 0, "MEAN_MOTION_DOT": -1.7e-07, "MEAN_MOTION_DDOT": 0}, "tle": {"line1": "1 37185U 10053A   25344.99141935 -.00000017  00000+0  00000+0 0  9999", "line2": "2 37185   0.0597 272.8413 0001499 236.0630 172.7615  1.00269536 55592"}}, "geometry": {"type": "Point", "coordinates": [-156.16618787021457, -0.06538196867873668]}}, {"type": "Feature", "properties": {"norad_id": 37238, "name": "INTELSAT 17 (IS-17)", "group": "intelsat", "lat": 0.019808913178713368, "lon": 25.063251739380117, "alt_km": 35792.14102474522, "timestamp": "2025-12-11T15:53:39.210016+00:00", "meta": {"OBJECT_NAME": "INTELSAT 17 (IS-17)", "OBJECT_ID": "2010-065B", "EPOCH": "2025-12-11T05:15:47.176128", "MEAN_MOTION": 1.00270924, "ECCENTRICITY": 0.00024789, "INCLINATION": 0.0095, "RA_OF_ASC_NODE": 288.2221, "ARG_OF_PERICENTER": 333.0224, "MEAN_ANOMALY": 323.8973, "EPHEMERIS_TYPE": 0, "CLASSIFICATION_TYPE": "U", "NORAD_CAT_ID": 37238, "ELEMENT_SET_NO": 999, "REV_AT_EPOCH": 5136, "BSTAR": 0, "MEAN_MOTION_DOT": 5e-08, "MEAN_MOTION_DDOT": 0}, "tle": {"line1": "1 37238U 10065B   25345.21929602  .00000005  00000+0  00000+0 0  9998", "line2": "2 37238   0.0095 288.2221 0002478 333.0224 323.8973  1.00270924 51367"}}, "geometry": {"type": "Point", "coordinates": [25.063251739380117, 0.019808913178713368]}}, {"type": "Feature", "properties": {"norad_id": 37392, "name": "INTELSAT 28 (IS-28)", "group": "intelsat", "lat": -0.5162667722652226, "lon": -72.6537840654397, "alt_km": 35770.78128737674, "timestamp": "2025-12-11T15:53:39.210028+00:00", "meta": {"OBJECT_NAME": "INTELSAT 28 (IS-28)", "OBJECT_ID": "2011-016A", "EPOCH": "2025-12-11T04:47:57.339744", "MEAN_MOTION": 1.00272041, "ECCENTRICITY": 0.00038978, "INCLINATION": 1.321, "RA_OF_ASC_NODE": 85.0743, "ARG_OF_PERICENTER": 180.7079, "MEAN_ANOMALY": 214.6748, "EPHEMERIS_TYPE": 0, "CLASSIFICATION_TYPE": "U", "NORAD_CAT_ID": 37392, "ELEMENT_SET_NO": 999, "REV_AT_EPOCH": 5140, "BSTAR": 0, "MEAN_MOTION_DOT": -2.19e-06, "MEAN_MOTION_DDOT": 0}, "tle": {"line1": "1 37392U 11016A   25345.19996921 -.00000219  00000+0  00000+0 0  9999", "line2": "2 37392   1.3210  85.0743 0003897 180.7079 214.6748  1.00272041 51408"}}, "geometry": {"type": "Point", "coordinates": [-72.6537840654397, -0.5162667722652226]}}]}